NOAA 17                 
1 27453U 02032A   26078.28720967  .00000190  00000+0  98468-4 0  9990
2 27453  98.8559  43.0194 0010575 251.0750 108.9283 14.26194770234175
NOAA 18                 
1 28654U 05018A   26078.23801574  .00000044  00000+0  46618-4 0  9998
2 28654  98.8143 159.2109 0015000  50.0083 310.2404 14.13712773 73605
NOAA 19                 
1 33591U 09005A   26078.22089528  .00000038  00000+0  44220-4 0  9990
2 33591  98.9589 149.0072 0012710 285.6690  74.3079 14.13458580881771
SUOMI NPP               
1 37849U 11061A   26077.76528040  .00000069  00000+0  53756-4 0  9998
2 37849  98.7881  19.2966 0000906 182.5879 177.5292 14.19546120745611
NOAA 20 (JPSS-1)        
1 43013U 17073A   26078.27340098  .00000059  00000+0  49054-4 0  9994
2 43013  98.7703  18.5659 0001592 125.1066 235.0259 14.19538509431716
NOAA 21 (JPSS-2)        
1 54234U 22150A   26078.30800115  .00000062  00000+0  50206-4 0  9993
2 54234  98.7566  18.4642 0002786  89.5296 270.6200 14.19554665173798
