[{"OBJECT_NAME":"NOAA 17","OBJECT_ID":"2002-032A","EPOCH":"2026-03-19T06:53:34.915488","MEAN_MOTION":14.2619477,"ECCENTRICITY":0.0010575,"INCLINATION":98.8559,"RA_OF_ASC_NODE":43.0194,"ARG_OF_PERICENTER":251.075,"MEAN_ANOMALY":108.9283,"EPHEMERIS_TYPE":0,"CLASSIFICATION_TYPE":"U","NORAD_CAT_ID":27453,"ELEMENT_SET_NO":999,"REV_AT_EPOCH":23417,"BSTAR":9.8467959e-5,"MEAN_MOTION_DOT":1.9e-6,"MEAN_MOTION_DDOT":0},{"OBJECT_NAME":"NOAA 18","OBJECT_ID":"2005-018A","EPOCH":"2026-03-19T05:42:44.559936","MEAN_MOTION":14.13712773,"ECCENTRICITY":0.00150005,"INCLINATION":98.8143,"RA_OF_ASC_NODE":159.2109,"ARG_OF_PERICENTER":50.0083,"MEAN_ANOMALY":310.2404,"EPHEMERIS_TYPE":0,"CLASSIFICATION_TYPE":"U","NORAD_CAT_ID":28654,"ELEMENT_SET_NO":999,"REV_AT_EPOCH":7360,"BSTAR":4.6618412e-5,"MEAN_MOTION_DOT":4.4e-7,"MEAN_MOTION_DDOT":0},{"OBJECT_NAME":"NOAA 19","OBJECT_ID":"2009-005A","EPOCH":"2026-03-19T05:18:05.352192","MEAN_MOTION":14.1345858,"ECCENTRICITY":0.00127107,"INCLINATION":98.9589,"RA_OF_ASC_NODE":149.0072,"ARG_OF_PERICENTER":285.669,"MEAN_ANOMALY":74.3079,"EPHEMERIS_TYPE":0,"CLASSIFICATION_TYPE":"U","NORAD_CAT_ID":33591,"ELEMENT_SET_NO":999,"REV_AT_EPOCH":88177,"BSTAR":4.4220079e-5,"MEAN_MOTION_DOT":3.8e-7,"MEAN_MOTION_DDOT":0},{"OBJECT_NAME":"SUOMI NPP","OBJECT_ID":"2011-061A","EPOCH":"2026-03-18T18:22:00.226560","MEAN_MOTION":14.1954612,"ECCENTRICITY":9.065e-5,"INCLINATION":98.7881,"RA_OF_ASC_NODE":19.2966,"ARG_OF_PERICENTER":182.5879,"MEAN_ANOMALY":177.5292,"EPHEMERIS_TYPE":0,"CLASSIFICATION_TYPE":"U","NORAD_CAT_ID":37849,"ELEMENT_SET_NO":999,"REV_AT_EPOCH":74561,"BSTAR":5.375558e-5,"MEAN_MOTION_DOT":6.9e-7,"MEAN_MOTION_DDOT":0},{"OBJECT_NAME":"NOAA 20 (JPSS-1)","OBJECT_ID":"2017-073A","EPOCH":"2026-03-19T06:33:41.844672","MEAN_MOTION":14.19538509,"ECCENTRICITY":0.00015925,"INCLINATION":98.7703,"RA_OF_ASC_NODE":18.5659,"ARG_OF_PERICENTER":125.1066,"MEAN_ANOMALY":235.0259,"EPHEMERIS_TYPE":0,"CLASSIFICATION_TYPE":"U","NORAD_CAT_ID":43013,"ELEMENT_SET_NO":999,"REV_AT_EPOCH":43171,"BSTAR":4.9054194e-5,"MEAN_MOTION_DOT":5.9e-7,"MEAN_MOTION_DDOT":0},{"OBJECT_NAME":"NOAA 21 (JPSS-2)","OBJECT_ID":"2022-150A","EPOCH":"2026-03-19T07:23:31.299360","MEAN_MOTION":14.19554665,"ECCENTRICITY":0.00027865,"INCLINATION":98.7566,"RA_OF_ASC_NODE":18.4642,"ARG_OF_PERICENTER":89.5296,"MEAN_ANOMALY":270.62,"EPHEMERIS_TYPE":0,"CLASSIFICATION_TYPE":"U","NORAD_CAT_ID":54234,"ELEMENT_SET_NO":999,"REV_AT_EPOCH":17379,"BSTAR":5.0206263e-5,"MEAN_MOTION_DOT":6.2e-7,"MEAN_MOTION_DDOT":0}]
